SIMBA                   
1 46279U 20061H   23278.73741250  .00045778  00000+0  16441-2 0  9996
2 46279  97.3898 344.8955 0003272  60.5383 299.6183 15.28513101170600
TRISAT                  
1 46280U 20061J   23279.17701444  .00034656  00000+0  13086-2 0  9993
2 46280  97.3813 344.4788 0003399  57.3965 302.7602 15.26924590170652
PICASSO-BEL             
1 46281U 20061K   23278.75379694  .00074457  00000+0  21264-2 0  9995
2 46281  97.3873 347.3358 0002489  48.0316 312.1139 15.35731986170790
DIDO 3                  
1 46284U 20061N   23279.11391596  .00022543  00000+0  98705-3 0  9998
2 46284  97.3873 343.1090 0003776  66.1692 293.9939 15.22032454170501
FLOCK 4V-14             
1 46286U 20061Q   23278.76097182  .00025888  00000+0  89598-3 0  9999
2 46286  97.3908 347.0186 0003271  45.4969 314.6539 15.29850101170756
AMICALSAT               
1 46287U 20061R   23279.41755899  .00024753  00000+0  10421-2 0  9997
2 46287  97.3877 343.9940 0003111  77.7568 282.4017 15.23350504170626
3CAT-5A                 
1 46292U 20061W   23279.43013525  .00010259  00000+0  52446-3 0  9998
2 46292  97.3870 341.6287 0003878  47.0681 313.0877 15.16841186170459
3CAT-5B                 
1 46293U 20061X   23278.72320151  .00011981  00000+0  60910-3 0  9994
2 46293  97.3873 341.1690 0003720  44.2326 315.9204 15.16997360170335
OSM-1 CICERO            
1 46294U 20061Y   23279.42194237  .00018785  00000+0  83745-3 0  9997
2 46294  97.3885 343.9906 0003054  39.6178 320.5281 15.21457012170600
TYVAK-0171              
1 46295U 20061Z   23279.45954972  .00089865  00000+0  20605-2 0  9993
2 46295  97.3943 351.2220 0001062  36.0705 324.0613 15.42408429170981
FLOCK 4V-10             
1 46296U 20061AA  23278.75682788  .00028707  00000+0  99705-3 0  9995
2 46296  97.3913 347.2457 0001678  51.9026 308.2366 15.29717994170727
FLOCK 4V-13             
1 46297U 20061AB  23278.74391823  .00028918  00000+0  10094-2 0  9999
2 46297  97.3908 347.2593 0000947  64.2229 295.9109 15.29554474170700
TTU100                  
1 46312U 20061AS  23279.40777935  .00040519  00000+0  13819-2 0  9992
2 46312  97.3928 347.9291 0001440 338.8129  21.3051 15.30235129170825
FLOCK 4V-4              
1 46314U 20061AU  23279.14456626  .00309006  00000+0  41807-2 0  9993
2 46314  97.3854 350.5074 0003803 276.3485  83.7337 15.56652780171015
LEMUR-2-SCHMIDTFALL     
1 46315U 20061AV  23279.16459232  .00177030  00000+0  16759-2 0  9990
2 46315  97.3924 358.4933 0004181 246.5619 113.5202 15.66390473171510
LEMUR-2-SQUAREJAWS      
1 46317U 20061AX  23279.47348908  .00208544  00000+0  15093-2 0  9998
2 46317  97.3928   0.0221 0003204 238.9331 121.1618 15.72836625171659
KEPLER-2 (TARS)         
1 46319U 20061AZ  23279.17802377  .00026293  00000+0  10532-2 0  9994
2 46319  97.3900 345.8434 0000751 334.3151  25.8049 15.25019091170725
NAPA-1                  
1 46320U 20061BA  23279.48382442  .00014809  00000+0  74023-3 0  9992
2 46320  97.3913 343.4762 0001559 332.0641  28.0509 15.17546183170594
FLOCK 4V-2              
1 46321U 20061BB  23279.13208718  .00088841  00000+0  19674-2 0  9995
2 46321  97.3847 351.1463 0001346 267.6678  92.4415 15.43453377170932
JILIN-1 GAOFEN 3B       
1 46454U 20065A   23279.53636331  .00017317  00000+0  83431-3 0  9999
2 46454  97.3818 324.7898 0013276  38.0254 322.1915 15.18721286168697
JILIN-1 GAOFEN 3E       
1 46457U 20065D   23279.53580015  .00016905  00000+0  81651-3 0  9993
2 46457  97.3827 324.8987 0012281  57.0157 303.2256 15.18650076168694
JILIN-1 GAOFEN 3F       
1 46458U 20065E   23279.38095427  .00015501  00000+0  74877-3 0  9998
2 46458  97.3759 323.7881 0012510  47.8500 312.3796 15.18661832168674
JILIN-1 GAOFEN 3G       
1 46459U 20065F   23279.50260792  .00015858  00000+0  76459-3 0  9995
2 46459  97.3877 325.7545 0013421  51.6181 308.6257 15.18711418168693
JILIN-1 GAOFEN 3H       
1 46460U 20065G   23279.51340871  .00016171  00000+0  78279-3 0  9996
2 46460  97.3771 324.1100 0012684  49.3028 310.9306 15.18577774168698
JILIN-1 GAOFEN 3J       
1 46462U 20065J   23279.54760908  .00016932  00000+0  81612-3 0  9998
2 46462  97.3815 324.8874 0012273  46.9314 313.2946 15.18721723168702
HAIYANG-2C              
1 46469U 20066A   23279.43872210  .00000012  00000+0  84659-4 0  9991
2 46469  65.9953 147.0919 0013289 284.4416  75.5177 13.83376056153565
HJ-2A                   
1 46478U 20067A   23279.49995857  .00002241  00000+0  32875-3 0  9999
2 46478  97.9605   0.4489 0000969  87.4524 272.6797 14.76529877162955
HJ-2B                   
1 46479U 20067B   23279.46733251  .00002252  00000+0  33069-3 0  9993
2 46479  97.9640   0.8605 0001267  90.2870 269.8485 14.76477080162957
GONETS-M 17             
1 46486U 20068A   23279.40343472  .00000061  00000+0  36939-3 0  9993
2 46486  82.4960 240.0841 0024262  25.3617 334.8648 12.42896590137012
GONETS-M 18             
1 46487U 20068B   23279.36782335  .00000035  00000+0  18095-3 0  9998
2 46487  82.4916 239.5965 0021362  22.3428 337.8578 12.42875839137006
GONETS-M 19             
1 46488U 20068C   23279.42260957  .00000051  00000+0  29337-3 0  9996
2 46488  82.4940 239.8084 0015197  37.5381 322.6757 12.42870963137020
MEZNSAT                 
1 46489U 20068D   23279.12111719  .00022425  00000+0  11858-2 0  9992
2 46489  97.7778 231.3589 0017564  93.4162 266.9079 15.15346700166012
YARILO 1                
1 46490U 20068E   23278.87082289  .00028216  00000+0  14477-2 0  9998
2 46490  97.7788 231.5602 0017181  94.7683 265.5512 15.16367787166005
YARILO 2                
1 46491U 20068F   23279.43610279  .00021333  00000+0  11039-2 0  9992
2 46491  97.7790 231.9538 0016884  95.2782 265.0377 15.16134259166073
LACUNASAT-3             
1 46492U 20068G   23279.45747110  .00024418  00000+0  12277-2 0  9992
2 46492  97.7773 232.3044 0016975  92.4434 267.8742 15.17114294166081
DEKART                  
1 46493U 20068H   23279.40119748  .00010539  00000+0  64912-3 0  9991
2 46493  97.7810 229.4535 0018356 103.6012 256.7263 15.10036389165881
NORBI                   
1 46494U 20068J   23279.53223107  .00013735  00000+0  82047-3 0  9991
2 46494  97.7810 229.8856 0017844 102.5675 257.7552 15.11085001165929
SALSAT                  
1 46495U 20068K   23279.11133989  .00009311  00000+0  59167-3 0  9996
2 46495  97.7808 228.4305 0017246 101.2964 259.0203 15.08947208165799
ICEYE-X6                
1 46497U 20068M   23279.40033738  .00009955  00000+0  78467-3 0  9999
2 46497  97.8616 226.1535 0006477 126.2109 233.9714 15.00955335165454
LEMUR-2-SLICERS         
1 46500U 20068Q   23278.79834060  .00042491  00000+0  18414-2 0  9999
2 46500  97.7628 230.8931 0011608 102.8188 257.4345 15.22191530165939
LEMUR-2-SUSURRUS        
1 46502U 20068S   23279.39071201  .00033527  00000+0  14530-2 0  9993
2 46502  97.7637 231.5223 0011414 102.2043 258.0471 15.22248882166023
NETSAT-4                
1 46504U 20068U   23278.83212438  .00012494  00000+0  78679-3 0  9997
2 46504  97.7718 225.8557 0011944 143.8271 216.3768 15.09258329165581
NETSAT-3                
1 46505U 20068V   23278.81454988  .00014174  00000+0  89850-3 0  9994
2 46505  97.7694 225.5952 0010604 151.8941 208.2862 15.08998128165588
NETSAT-1                
1 46506U 20068W   23279.35106083  .00010350  00000+0  66722-3 0  9990
2 46506  97.7707 225.9660 0008826 158.1317 202.0289 15.08477466165654
NETSAT-2                
1 46507U 20068X   23279.43202072  .00011654  00000+0  73599-3 0  9993
2 46507  97.7707 226.1773 0008155 160.3824 199.7719 15.09204912165628
FLOCK 4V-16             
1 46527U 20061BD  23279.11470179  .00063848  00000+0  12033-2 0  9995
2 46527  97.3387 352.6920 0002926 209.4737 150.6349 15.48284520167697
FLOCK 4V-17             
1 46529U 20061BF  23278.72764247  .00053455  00000+0  10474-2 0  9995
2 46529  97.3362 352.0916 0001283 224.7225 135.3922 15.47208264167213
FLOCK 4V-20             
1 46612U 20061BJ  23279.18911772  .00019755  00000+0  62588-3 0  9995
2 46612  97.3499 349.4028 0003354 230.6675 129.4270 15.32759357165437
FLOCK 4V-23             
1 46737U 20061BM  23279.38625556  .00285948  00000+0  25463-2 0  9996
2 46737  97.3284 351.9431 0006460 216.8158 143.2660 15.67570665164477
TIANQI-6                
1 46810U 20076D   23279.38907788  .00006382  00000+0  57826-3 0  9996
2 46810  35.0023 276.6216 0014214 207.8543 152.1403 14.94674197160617
FLOCK 4V-25             
1 46812U 20061BP  23279.21059595  .00055379  00000+0  10739-2 0  9999
2 46812  97.3334 352.3594 0002231 178.8752 181.2503 15.47499280163705
FLOCK 4E'-2             
1 46820U 20077H   23279.12788276  .00376033  00000+0  26770-2 0  9995
2 46820  97.3535 347.4825 0006120 173.4804 186.6540 15.72738401163371
NUSAT-10 (CAROLINE)     
1 46832U 20079F   23279.40985404  .00413624  65927-4  13826-2 0  9993
2 46832  97.1323 354.4395 0004930 273.9057  86.1653 15.90146241163970
BEIHANGKONGSHI 1        
1 46838U 20079M   23279.53831756  .00194042  00000+0  14522-2 0  9993
2 46838  97.1392 354.0686 0001060  44.1414 315.9935 15.72087879163963
TIANQI-11               
1 46904U 20080A   23279.02861598  .00359202  00000+0  19292-2 0  9990
2 46904  97.5044  63.4257 0001069 201.6763 269.9298 15.79277402162785
KSM1-C                  
1 46906U 20081B   23278.90302331  .00010252  00000+0  71555-3 0  9994
2 46906  36.8943 277.4043 0004693 302.5000  57.5288 15.04858293159622
KSM1-D                  
1 46907U 20081C   23279.43993663  .00009618  00000+0  67377-3 0  9999
2 46907  36.8987 274.5916 0005999 333.8023  26.2415 15.04738265159777
KSM1-A                  
1 46912U 20081H   23279.42159199  .00009326  00000+0  65184-3 0  9992
2 46912  36.8978 273.4569 0002772  58.4411 301.6601 15.04843642159786
R2                      
1 46913U 20081J   23278.43151454  .00010138  00000+0  70399-3 0  9996
2 46913  36.9024 277.9396 0009975 351.6074   8.4501 15.05022713158972
